NORAD_CAT_ID,OBJECT_NAME,OBJECT_TYPE,EPOCH,MEAN_MOTION,ECCENTRICITY,INCLINATION,RA_OF_ASC_NODE,ARG_OF_PERICENTER,MEAN_ANOMALY,BSTAR,MEAN_MOTION_DOT,MEAN_MOTION_DDOT,TLE_LINE0,TLE_LINE1,TLE_LINE2,SEMIMAJOR_AXIS,PERIOD,APOGEE,PERIGEE,DECAYED
52278.0,STARLINK-3780,PAYLOAD,2022-07-18 22:00:00,15.08862398,0.0001719,53.2181,318.6917,47.6204,52.2581,-0.002519,-0.00040179,0.0,0 STARLINK-3780,1 52278U 22041T   22199.91667824 -.00040179  00000-0 -25190-2 0  9991,2 52278  53.2181 318.6917 0001719  47.6204  52.2581 15.08862398  1309,6917.812,95.436,540.866,538.488,0.0
52278.0,STARLINK-3780,PAYLOAD,2022-07-19 14:00:01,15.08840828,0.0001638,53.218,315.6988,49.4048,73.6695,-0.00051374,-8.455e-05,0.0,0 STARLINK-3780,1 52278U 22041T   22200.58334491 -.00008455  00000-0 -51374-3 0  9993,2 52278  53.2180 315.6988 0001638  49.4048  73.6695 15.08840828 14940,6917.878000000002,95.438,540.876,538.61,0.0
52278.0,STARLINK-3780,PAYLOAD,2022-07-19 22:00:00,15.08871316,0.0001739,53.2173,314.2046,46.8484,87.8071,-0.0039609,-0.00062831,0.0,0 STARLINK-3780,1 52278U 22041T   22200.91667824 -.00062831  00000-0 -39609-2 0  9993,2 52278  53.2173 314.2046 0001739  46.8484  87.8071 15.08871316  1306,6917.785,95.436,540.8530000000002,538.447,0.0
52278.0,STARLINK-3780,PAYLOAD,2022-07-20 06:00:00,15.0882714,0.0001575,53.2175,312.7044,56.4336,89.8664,0.0031631999999999,0.00050397,0.0,0 STARLINK-3780,1 52278U 22041T   22201.25001157  .00050397  00000-0  31632-2 0  9992,2 52278  53.2175 312.7044 0001575  56.4336  89.8664 15.08827140 15042,6917.92,95.438,540.874,538.695,0.0
52278.0,STARLINK-3780,PAYLOAD,2022-07-20 14:00:01,15.08868198,0.0001727,53.2174,311.2097,51.5293,106.3685,-0.0020475,-0.00032752,0.0,0 STARLINK-3780,1 52278U 22041T   22201.58334491 -.00032752  00000-0 -20475-2 0  9998,2 52278  53.2174 311.2097 0001727  51.5293 106.3685 15.08868198  1300,6917.794,95.436,540.854,538.464,0.0
52278.0,STARLINK-3780,PAYLOAD,2022-07-20 22:00:01,15.08861976,0.0001705,53.2171,309.7127,50.2098,119.3549,-0.0055368,-0.00087392,0.0,0 STARLINK-3780,1 52278U 22041T   22201.91668981 -.00087392  00000-0 -55368-2 0  9998,2 52278  53.2171 309.7127 0001705  50.2098 119.3549 15.08861976  1308,6917.813,95.436,540.8580000000002,538.499,0.0
52278.0,STARLINK-3780,PAYLOAD,2022-07-21 08:00:01,15.08806151,0.0001696999999999,53.2173,307.8414,58.9036,215.0607,0.00067719,0.00010496,0.0,0 STARLINK-3780,1 52278U 22041T   22202.33334491  .00010496  00000-0  67719-3 0  9994,2 52278  53.2173 307.8414 0001697  58.9036 215.0607 15.08806151 15202,6917.984,95.44,541.023,538.675,0.0
52278.0,STARLINK-3780,PAYLOAD,2022-07-21 14:00:01,15.08805222,0.000183,53.2172,306.7206,52.7962,139.9,0.00012197,1.652e-05,0.0,0 STARLINK-3780,1 52278U 22041T   22202.58335648  .00001652  00000-0  12197-3 0  9990,2 52278  53.2172 306.7206 0001830  52.7962 139.9000 15.08805222  1302,6917.986999999999,95.44,541.118,538.586,0.0
52278.0,STARLINK-3780,PAYLOAD,2022-07-21 22:00:00,15.08831382,0.0001786,53.2171,305.2236,51.4577,152.7266,-0.0014163,-0.00022753,0.0,0 STARLINK-3780,1 52278U 22041T   22202.91667824 -.00022753  00000-0 -14163-2 0  9992,2 52278  53.2171 305.2236 0001786  51.4577 152.7266 15.08831382  1309,6917.906999999997,95.438,541.007,538.536,0.0
52278.0,STARLINK-3780,PAYLOAD,2022-07-22 06:00:00,15.08815543,0.000173,53.2173,303.7261,57.6005,158.1591,0.0022402,0.00035521,0.0,0 STARLINK-3780,1 52278U 22041T   22203.25001157  .00035521  00000-0  22402-2 0  9991,2 52278  53.2173 303.7261 0001730  57.6005 158.1591 15.08815543  1307,6917.955,95.439,541.0169999999998,538.623,0.0
52278.0,STARLINK-3780,PAYLOAD,2022-07-22 12:00:00,15.08845449,0.0001853,53.2173,302.6052,53.0501,81.3985,-0.00087941,-0.00014259,0.0,0 STARLINK-3780,1 52278U 22041T   22203.50001157 -.00014259  00000-0 -87941-3 0  9996,2 52278  53.2173 302.6052 0001853  53.0501  81.3985 15.08845449 15385,6917.864000000001,95.437,541.011,538.447,0.0
52278.0,STARLINK-3780,PAYLOAD,2022-07-22 22:00:00,15.08868093,0.0001829,53.2175,300.7343,50.3263,188.6174,-0.0014971,-0.00024054,0.0,0 STARLINK-3780,1 52278U 22041T   22203.91667824 -.00024054  00000-0 -14971-2 0  9996,2 52278  53.2175 300.7343 0001829  50.3263 188.6174 15.08868093  1305,6917.795,95.436,540.925,538.394,0.0
52278.0,STARLINK-3780,PAYLOAD,2022-07-23 06:00:00,15.08861293,0.0001721999999999,53.2178,299.2369,55.4902,195.0721,-0.00081969,-0.00013317,0.0,0 STARLINK-3780,1 52278U 22041T   22204.25001157 -.00013317  00000-0 -81969-3 0  9997,2 52278  53.2178 299.2369 0001722  55.4902 195.0721 15.08861293 15496,6917.815,95.436,540.872,538.489,0.0
52278.0,STARLINK-3780,PAYLOAD,2022-07-23 14:00:01,15.08838523,0.0001834,53.2179,297.7422,48.1453,214.0824,-0.00067079,-0.00010948,0.0,0 STARLINK-3780,1 52278U 22041T   22204.58335648 -.00010948  00000-0 -67079-3 0  9991,2 52278  53.2179 297.7422 0001834  48.1453 214.0824 15.08838523  1305,6917.885,95.438,541.019,538.481,0.0
52278.0,STARLINK-3780,PAYLOAD,2022-07-23 22:00:00,15.08848889,0.0001704,53.218,296.2451,45.9827,227.7794,-0.0025223,-0.00040217,0.0,0 STARLINK-3780,1 52278U 22041T   22204.91667824 -.00040217  00000-0 -25223-2 0  9998,2 52278  53.2180 296.2451 0001704  45.9827 227.7794 15.08848889  1302,6917.853,95.437,540.8969999999998,538.539,0.0
52278.0,STARLINK-3780,PAYLOAD,2022-07-24 14:00:01,15.08826645,0.0001819,53.2184,293.2534,46.1709,250.756,0.00070137,0.00010888,0.0,0 STARLINK-3780,1 52278U 22041T   22205.58334491  .00010888  00000-0  70137-3 0  9997,2 52278  53.2184 293.2534 0001819  46.1709 250.7560 15.08826645  1307,6917.920999999999,95.438,541.045,538.528,0.0
52278.0,STARLINK-3780,PAYLOAD,2022-07-24 22:00:00,15.08853766,0.0001746,53.2183,291.7562,47.7125,260.7977,-0.0040706,-0.00064517,0.0,0 STARLINK-3780,1 52278U 22041T   22205.91667824 -.00064517  00000-0 -40706-2 0  9991,2 52278  53.2183 291.7562 0001746  47.7125 260.7977 15.08853766  1305,6917.8380000000025,95.437,540.911,538.495,0.0
52278.0,STARLINK-3780,PAYLOAD,2022-07-25 06:00:00,15.08817021,0.0001692,53.2186,290.2592,54.5964,265.4915,0.0011872999999999,0.00018646,0.0,0 STARLINK-3780,1 52278U 22041T   22206.25001157  .00018646  00000-0  11873-2 0  9993,2 52278  53.2186 290.2592 0001692  54.5964 265.4915 15.08817021 15798,6917.951,95.439,540.986,538.645,0.0
52278.0,STARLINK-3780,PAYLOAD,2022-07-25 14:00:01,15.08813055,0.0001878,53.2185,288.7648,48.2618,283.4029,0.0010826,0.00016971,0.0,0 STARLINK-3780,1 52278U 22041T   22206.58334491  .00016971  00000-0  10826-2 0  9995,2 52278  53.2185 288.7648 0001878  48.2618 283.4029 15.08813055  1304,6917.9630000000025,95.439,541.127,538.529,0.0
52278.0,STARLINK-3780,PAYLOAD,2022-07-25 22:00:00,15.088402,0.0001754,53.2182,287.2675,49.6376,293.5945,-0.001828,-0.00029263,0.0,0 STARLINK-3780,1 52278U 22041T   22206.91667824 -.00029263  00000-0 -18280-2 0  9993,2 52278  53.2182 287.2675 0001754  49.6376 293.5945 15.08840200 15894,6917.88,95.438,540.9580000000002,538.531,0.0
52278.0,STARLINK-3780,PAYLOAD,2022-07-26 14:00:01,15.08821864,0.0001851999999999,53.2181,284.2763,48.8332,317.5701,0.0012895,0.00020284,0.0,0 STARLINK-3780,1 52278U 22041T   22207.58334491  .00020284  00000-0  12895-2 0  9996,2 52278  53.2181 284.2763 0001852  48.8332 317.5701 15.08821864 15993,6917.936,95.439,541.082,538.52,0.0
52278.0,STARLINK-3780,PAYLOAD,2022-07-26 22:00:00,15.08846723,0.0001733,53.2177,282.7788,51.0052,326.9796,-0.0014877,-0.00023891,0.0,0 STARLINK-3780,1 52278U 22041T   22207.91667824 -.00023891  00000-0 -14877-2 0  9993,2 52278  53.2177 282.7788 0001733  51.0052 326.9796 15.08846723  1300,6917.86,95.437,540.924,538.526,0.0
52278.0,STARLINK-3780,PAYLOAD,2022-07-27 14:00:01,15.08828668,0.0001847,53.2174,279.7878,49.3855,351.7973,0.0016487,0.0002604,0.0,0 STARLINK-3780,1 52278U 22041T   22208.58334491  .00026040  00000-0  16487-2 0  9994,2 52278  53.2174 279.7878 0001847  49.3855 351.7973 15.08828668  1301,6917.915,95.438,541.058,538.502,0.0
52278.0,STARLINK-3780,PAYLOAD,2022-07-27 22:00:00,15.08852211,0.0001733,53.217,278.29,52.11600000000001,0.6604,-0.0010600999999999,-0.00017126,0.0,0 STARLINK-3780,1 52278U 22041T   22208.91667824 -.00017126  00000-0 -10601-2 0  9999,2 52278  53.2170 278.2900 0001733  52.1160   0.6604 15.08852211  1304,6917.843000000003,95.437,540.9069999999998,538.509,0.0
52278.0,STARLINK-3780,PAYLOAD,2022-07-28 14:00:01,15.08834934,0.0001872,53.2167,275.29900000000004,49.2045,26.7923,0.0021506,0.000341,0.0,0 STARLINK-3780,1 52278U 22041T   22209.58334491  .00034100  00000-0  21506-2 0  9999,2 52278  53.2167 275.2990 0001872  49.2045  26.7923 15.08834934  1304,6917.896,95.438,541.056,538.466,0.0
52278.0,STARLINK-3780,PAYLOAD,2022-07-28 22:00:00,15.0885978,0.0001753,53.2165,273.801,52.0939,35.51,-0.00049386,-8.144e-05,0.0,0 STARLINK-3780,1 52278U 22041T   22209.91667824 -.00008144  00000-0 -49386-3 0  9993,2 52278  53.2165 273.8010 0001753  52.0939  35.5100 15.08859780 16353,6917.82,95.436,540.898,538.472,0.0
52278.0,STARLINK-3780,PAYLOAD,2022-07-29 14:00:01,15.0882174,0.0001901,53.2163,270.8098,42.8765,67.9867,0.0025463,0.00040449,0.0,0 STARLINK-3780,1 52278U 22041T   22210.58334491  .00040449  00000-0  25463-2 0  9990,2 52278  53.2163 270.8098 0001901  42.8765  67.9867 15.08821740  1306,6917.936,95.439,541.116,538.486,0.0
52278.0,STARLINK-3780,PAYLOAD,2022-07-29 22:00:00,15.08845648,0.0001761999999999,53.2163,269.3118,45.4392,77.0194,-0.0001097,-2.034e-05,0.0,0 STARLINK-3780,1 52278U 22041T   22210.91667824 -.00002034  00000-0 -10970-3 0  9994,2 52278  53.2163 269.3118 0001762  45.4392  77.0194 15.08845648  1300,6917.863,95.437,540.947,538.509,0.0
52278.0,STARLINK-3780,PAYLOAD,2022-07-30 06:00:00,15.08870267,0.0001781,53.2163,267.8154,47.0927,86.9604,-0.0039619999999999,-0.00062846,0.0,0 STARLINK-3780,1 52278U 22041T   22211.25001157 -.00062846  00000-0 -39620-2 0  9992,2 52278  53.2163 267.8154 0001781  47.0927  86.9604 15.08870267 16559,6917.788000000001,95.436,540.885,538.4209999999998,0.0
